NORAD_CAT_ID,OBJECT_NAME,OBJECT_TYPE,EPOCH,MEAN_MOTION,ECCENTRICITY,INCLINATION,RA_OF_ASC_NODE,ARG_OF_PERICENTER,MEAN_ANOMALY,BSTAR,MEAN_MOTION_DOT,MEAN_MOTION_DDOT,TLE_LINE0,TLE_LINE1,TLE_LINE2,SEMIMAJOR_AXIS,PERIOD,APOGEE,PERIGEE,DECAYED
50166.0,STARLINK-3305,PAYLOAD,2022-05-15 14:00:01,15.08837408,0.0001699,53.2168,27.502,55.398,77.2863,0.00084515,0.00013187,0.0,0 STARLINK-3305,1 50166U 21125L   22135.58335648  .00013187  00000-0  84515-3 0  9990,2 50166  53.2168  27.5020 0001699  55.3980  77.2863 15.08837408  1307,6917.888000000001,95.438,540.929,538.578,0.0
50166.0,STARLINK-3305,PAYLOAD,2022-05-15 22:00:00,15.08846337,0.0001792,53.217,26.0071,51.6153,92.6118,-0.00031313,-5.269e-05,0.0,0 STARLINK-3305,1 50166U 21125L   22135.91667824 -.00005269  00000-0 -31313-3 0  9993,2 50166  53.2170  26.0071 0001792  51.6153  92.6118 15.08846337  1300,6917.861,95.437,540.966,538.486,0.0
50166.0,STARLINK-3305,PAYLOAD,2022-05-16 06:00:02,15.08864939,0.0001784,53.2168,24.5109,46.5083,109.3793,-0.0022147,-0.00035387,0.0,0 STARLINK-3305,1 50166U 21125L   22136.25002315 -.00035387  00000-0 -22147-2 0  9997,2 50166  53.2168  24.5109 0001784  46.5083 109.3793 15.08864939 23147,6917.804,95.436,540.903,538.435,0.0
50166.0,STARLINK-3305,PAYLOAD,2022-05-16 14:00:01,15.08826361,0.000156,53.217,23.0129,50.9285,116.508,0.00051573,7.926e-05,0.0,0 STARLINK-3305,1 50166U 21125L   22136.58334491  .00007926  00000-0  51573-3 0  9998,2 50166  53.2170  23.0129 0001560  50.9285 116.5080 15.08826361  1301,6917.922,95.438,540.866,538.7080000000002,0.0
50166.0,STARLINK-3305,PAYLOAD,2022-05-16 22:00:00,15.08838798,0.0001718,53.2171,21.5181,47.2208,131.7988,-0.00084671,-0.00013738,0.0,0 STARLINK-3305,1 50166U 21125L   22136.91667824 -.00013738  00000-0 -84671-3 0  9999,2 50166  53.2171  21.5181 0001718  47.2208 131.7988 15.08838798  1305,6917.884,95.438,540.938,538.561,0.0
50166.0,STARLINK-3305,PAYLOAD,2022-05-17 06:00:00,15.08840438,0.0001794,53.217,20.0217,45.803,144.8049,-0.0012165999999999,-0.00019599,0.0,0 STARLINK-3305,1 50166U 21125L   22137.25001157 -.00019599  00000-0 -12166-2 0  9998,2 50166  53.2170  20.0217 0001794  45.8030 144.8049 15.08840438 23298,6917.879,95.438,540.985,538.503,0.0
50166.0,STARLINK-3305,PAYLOAD,2022-05-17 14:00:01,15.08815367,0.0001729,53.2172,18.5237,54.1091,148.1403,0.0014802,0.00023332,0.0,0 STARLINK-3305,1 50166U 21125L   22137.58335648  .00023332  00000-0  14802-2 0  9996,2 50166  53.2172  18.5237 0001729  54.1091 148.1403 15.08815367  1304,6917.956,95.439,541.0169999999998,538.625,0.0
50166.0,STARLINK-3305,PAYLOAD,2022-05-17 22:00:01,15.08828481,0.0001922,53.2173,17.0289,51.5019,162.3388,-0.00042721,-7.079e-05,0.0,0 STARLINK-3305,1 50166U 21125L   22137.91668981 -.00007079  00000-0 -42721-3 0  9996,2 50166  53.2173  17.0289 0001922  51.5019 162.3388 15.08828481  1303,6917.916,95.438,541.11,538.451,0.0
50166.0,STARLINK-3305,PAYLOAD,2022-05-18 06:00:00,15.08852621,0.0001905,53.2171,15.5323,50.1172,175.2444,0.00021644,3.159e-05,0.0,0 STARLINK-3305,1 50166U 21125L   22138.25001157  .00003159  00000-0  21644-3 0  9994,2 50166  53.2171  15.5323 0001905  50.1172 175.2444 15.08852621 23447,6917.842,95.437,541.025,538.389,0.0
50166.0,STARLINK-3305,PAYLOAD,2022-05-18 14:00:01,15.08854138,0.000171,53.2173,14.0344,55.7876,181.1827,0.00037052,5.616e-05,0.0,0 STARLINK-3305,1 50166U 21125L   22138.58334491  .00005616  00000-0  37052-3 0  9990,2 50166  53.2173  14.0344 0001710  55.7876 181.1827 15.08854138  1309,6917.837,95.437,540.885,538.519,0.0
50166.0,STARLINK-3305,PAYLOAD,2022-05-18 22:00:00,15.08857918,0.0001804,53.2174,12.5396,49.6498,198.9348,-0.0036131,-0.00057362,0.0,0 STARLINK-3305,1 50166U 21125L   22138.91667824 -.00057362  00000-0 -36131-2 0  9999,2 50166  53.2174  12.5396 0001804  49.6498 198.9348 15.08857918  1309,6917.826,95.436,540.939,538.443,0.0
50166.0,STARLINK-3305,PAYLOAD,2022-05-19 06:00:00,15.08832302,0.0001769,53.2171,11.0428,48.0877,212.09,-0.0020863,-0.00033332,0.0,0 STARLINK-3305,1 50166U 21125L   22139.25001157 -.00033332  00000-0 -20863-2 0  9994,2 50166  53.2171  11.0428 0001769  48.0877 212.0900 15.08832302 23597,6917.904,95.438,540.993,538.545,0.0
50166.0,STARLINK-3305,PAYLOAD,2022-05-19 14:00:01,15.08800095,0.0001663,53.2173,9.545,55.822,215.9878,0.0034334,0.00054719,0.0,0 STARLINK-3305,1 50166U 21125L   22139.58335648  .00054719  00000-0  34334-2 0  9993,2 50166  53.2173   9.5450 0001663  55.8220 215.9878 15.08800095  1302,6918.002,95.44,541.018,538.717,0.0
50166.0,STARLINK-3305,PAYLOAD,2022-05-19 22:00:00,15.08843535,0.0001781,53.2172,8.0505,50.2893,233.0316,-0.00088549,-0.00014355,0.0,0 STARLINK-3305,1 50166U 21125L   22139.91667824 -.00014355  00000-0 -88549-3 0  9996,2 50166  53.2172   8.0505 0001781  50.2893 233.0316 15.08843535 23692,6917.87,95.437,540.967,538.503,0.0
50166.0,STARLINK-3305,PAYLOAD,2022-05-20 14:00:01,15.08834424,0.0001593,53.2171,5.0559,55.5782,250.93,0.00015341,2.154e-05,0.0,0 STARLINK-3305,1 50166U 21125L   22140.58334491  .00002154  00000-0  15341-3 0  9994,2 50166  53.2171   5.0559 0001593  55.5782 250.9300 15.08834424  1305,6917.897,95.438,540.864,538.66,0.0
50166.0,STARLINK-3305,PAYLOAD,2022-05-20 22:00:00,15.08864567,0.0001743,53.2173,3.5604,49.0299,269.0679,-0.0068467,-0.00107702,0.0,0 STARLINK-3305,1 50166U 21125L   22140.91667824 -.00107702  00000-0 -68467-2 0  9993,2 50166  53.2173   3.5604 0001743  49.0299 269.0679 15.08864567 23843,6917.805,95.436,540.876,538.465,0.0
50166.0,STARLINK-3305,PAYLOAD,2022-05-21 06:00:00,15.08870365,0.0001705,53.2165,2.0643,50.2333,279.4449,-0.0037891,-0.00060139,0.0,0 STARLINK-3305,1 50166U 21125L   22141.25001157 -.00060139  00000-0 -37891-2 0  9991,2 50166  53.2165   2.0643 0001705  50.2333 279.4449 15.08870365 23890,6917.788000000001,95.436,540.832,538.4730000000002,0.0
50166.0,STARLINK-3305,PAYLOAD,2022-05-21 14:00:01,15.08820524,0.0001537,53.2168,0.5667,55.71,285.6403,0.0026392,0.00041943,0.0,0 STARLINK-3305,1 50166U 21125L   22141.58335648  .00041943  00000-0  26392-2 0  9996,2 50166  53.2168   0.5667 0001537  55.7100 285.6403 15.08820524  1300,6917.94,95.439,540.868,538.742,0.0
50166.0,STARLINK-3305,PAYLOAD,2022-05-21 22:00:00,15.08833667,0.0001667,53.2167,359.0723,47.5828,305.3043,-0.00046156,-7.625e-05,0.0,0 STARLINK-3305,1 50166U 21125L   22141.91667824 -.00007625  00000-0 -46156-3 0  9999,2 50166  53.2167 359.0723 0001667  47.5828 305.3043 15.08833667 24008,6917.9,95.438,540.918,538.612,0.0
50166.0,STARLINK-3305,PAYLOAD,2022-05-22 14:00:01,15.08836539,0.0001619,53.2167,356.0778,55.2002,320.8603,-0.00032869,-5.515e-05,0.0,0 STARLINK-3305,1 50166U 21125L   22142.58334491 -.00005515  00000-0 -32869-3 0  9996,2 50166  53.2167 356.0778 0001619  55.2002 320.8603 15.08836539  1305,6917.891,95.438,540.876,538.636,0.0
50166.0,STARLINK-3305,PAYLOAD,2022-05-22 22:00:01,15.08815252,0.0001882,53.2167,354.5832,51.113,336.6033,0.0011629,0.00018256,0.0,0 STARLINK-3305,1 50166U 21125L   22142.91668981  .00018256  00000-0  11629-2 0  9991,2 50166  53.2167 354.5832 0001882  51.1130 336.6033 15.08815252 24157,6917.956,95.439,541.123,538.519,0.0
50166.0,STARLINK-3305,PAYLOAD,2022-05-23 14:00:01,15.08843055,0.000175,53.2168,351.5888,55.9125,354.8888,0.0013812,0.00021764,0.0,0 STARLINK-3305,1 50166U 21125L   22143.58334491  .00021764  00000-0  13812-2 0  9995,2 50166  53.2168 351.5888 0001750  55.9125 354.8888 15.08843055  1300,6917.871,95.437,540.947,538.525,0.0
50166.0,STARLINK-3305,PAYLOAD,2022-05-23 22:00:01,15.088362099999998,0.000187,53.2169,350.0942,48.9836,13.4957,0.00028376,4.23e-05,0.0,0 STARLINK-3305,1 50166U 21125L   22143.91668981  .00004230  00000-0  28376-3 0  9997,2 50166  53.2169 350.0942 0001870  48.9836  13.4957 15.08836210  1300,6917.892,95.438,541.0509999999998,538.4630000000002,0.0
50166.0,STARLINK-3305,PAYLOAD,2022-05-24 06:00:02,15.08867941,0.0001736,53.2169,348.5967,47.3095,26.7529,-0.0038181,-0.00060589,0.0,0 STARLINK-3305,1 50166U 21125L   22144.25002315 -.00060589  00000-0 -38181-2 0  9993,2 50166  53.2169 348.5967 0001736  47.3095  26.7529 15.08867941 24357,6917.795,95.436,540.861,538.4590000000002,0.0
50166.0,STARLINK-3305,PAYLOAD,2022-05-24 12:01:58,15.08841944,0.0001509,53.2174,347.4664,50.4813,309.6313,0.00017361,2.476e-05,0.0,0 STARLINK-3305,1 50166U 21125L   22144.50137483  .00002476  00000-0  17361-3 0  9993,2 50166  53.2174 347.4664 0001509  50.4813 309.6313 15.08841944 27471,6917.874,95.437,540.783,538.696,0.0
50166.0,STARLINK-3305,PAYLOAD,2022-05-24 22:00:00,15.08824112,0.0001768,53.2172,345.6052,43.3454,53.8439,-0.00030391,-5.119e-05,0.0,0 STARLINK-3305,1 50166U 21125L   22144.91667824 -.00005119  00000-0 -30391-3 0  9992,2 50166  53.2172 345.6052 0001768  43.3454  53.8439 15.08824112 24459,6917.929,95.439,541.0169999999998,538.571,0.0
50166.0,STARLINK-3305,PAYLOAD,2022-05-25 14:00:01,15.08840486,0.0001612,53.2174,342.6107,48.4498,71.8897,0.0010556,0.00016552,0.0,0 STARLINK-3305,1 50166U 21125L   22145.58334491  .00016552  00000-0  10556-2 0  9998,2 50166  53.2174 342.6107 0001612  48.4498  71.8897 15.08840486  1300,6917.879,95.438,540.859,538.629,0.0
50166.0,STARLINK-3305,PAYLOAD,2022-05-25 19:49:41,15.08845552,0.0001661,53.2173,341.5194,49.026,311.0876,-3.4335e-05,-8.35e-06,0.0,0 STARLINK-3305,1 50166U 21125L   22145.82617749 -.00000835  00000-0 -34335-4 0  9997,2 50166  53.2173 341.5194 0001661  49.0260 311.0876 15.08845552 24592,6917.863,95.437,540.877,538.5790000000002,0.0
50166.0,STARLINK-3305,PAYLOAD,2022-05-26 11:43:33,15.08838942,0.0001682,53.2171,338.5466,46.4231,313.6901,9.2827e-05,1.19e-05,0.0,0 STARLINK-3305,1 50166U 21125L   22146.48858080  .00001190  00000-0  92827-4 0  9998,2 50166  53.2171 338.5466 0001682  46.4231 313.6901 15.08838942 27775,6917.884,95.438,540.9119999999998,538.585,0.0
